{
  "type": "FeatureCollection",
  "features": [
    {
      "type": "Feature",
      "properties": {
        "norad_id": 58701,
        "name": "TIANMU-1 16",
        "group": "weather",
        "lat": 78.48583644248995,
        "lon": 19.36560744650661,
        "alt_km": 487.9365556835364,
        "timestamp": "2025-12-04T10:51:49.749965+00:00",
        "meta_object_name": "TIANMU-1 16",
        "meta_object_id": "2024-004B",
        "meta_epoch": "2025-12-02T23:46:09.262272",
        "meta_mean_motion": 15.24215807,
        "meta_eccentricity": 0.00050547,
        "meta_inclination": 97.4572,
        "meta_ra_of_asc_node": 157.8955,
        "meta_arg_of_pericenter": 336.3217,
        "meta_mean_anomaly": 23.7787,
        "meta_ephemeris_type": 0,
        "meta_classification_type": "U",
        "meta_norad_cat_id": 58701,
        "meta_element_set_no": 999,
        "meta_rev_at_epoch": 10586,
        "meta_bstar": 6.5908855e-05,
        "meta_mean_motion_dot": 1.535e-05,
        "meta_mean_motion_ddot": 0,
        "tle_line1": "1 58701U 24004B   25336.99038498  .00001535  00000+0  65909-4 0  9996",
        "tle_line2": "2 58701  97.4572 157.8955 0005054 336.3217  23.7787 15.24215807105865"
      },
      "geometry": {
        "type": "Point",
        "coordinates": [
          19.36560744650661,
          78.48583644248995
        ]
      }
    },
    {
      "type": "Feature",
      "properties": {
        "norad_id": 58702,
        "name": "TIANMU-1 17",
        "group": "weather",
        "lat": -2.0943859968377714,
        "lon": -20.518337848514758,
        "alt_km": 498.8308365480434,
        "timestamp": "2025-12-04T10:51:49.749977+00:00",
        "meta_object_name": "TIANMU-1 17",
        "meta_object_id": "2024-004C",
        "meta_epoch": "2025-12-04T05:20:28.428864",
        "meta_mean_motion": 15.24299843,
        "meta_eccentricity": 0.0004237,
        "meta_inclination": 97.4596,
        "meta_ra_of_asc_node": 159.5272,
        "meta_arg_of_pericenter": 335.954,
        "meta_mean_anomaly": 24.1499,
        "meta_ephemeris_type": 0,
        "meta_classification_type": "U",
        "meta_norad_cat_id": 58702,
        "meta_element_set_no": 999,
        "meta_rev_at_epoch": 10604,
        "meta_bstar": 0.00058716,
        "meta_mean_motion_dot": 0.00014295,
        "meta_mean_motion_ddot": 0,
        "tle_line1": "1 58702U 24004C   25338.22255126  .00014295  00000+0  58716-3 0  9998",
        "tle_line2": "2 58702  97.4596 159.5272 0004237 335.9540  24.1499 15.24299843106047"
      },
      "geometry": {
        "type": "Point",
        "coordinates": [
          -20.518337848514758,
          -2.0943859968377714
        ]
      }
    },
    {
      "type": "Feature",
      "properties": {
        "norad_id": 58703,
        "name": "TIANMU-1 18",
        "group": "weather",
        "lat": -81.62981517623446,
        "lon": -137.0858894962083,
        "alt_km": 499.09487758659907,
        "timestamp": "2025-12-04T10:51:49.749988+00:00",
        "meta_object_name": "TIANMU-1 18",
        "meta_object_id": "2024-004D",
        "meta_epoch": "2025-12-04T04:56:21.585696",
        "meta_mean_motion": 15.24290863,
        "meta_eccentricity": 0.0003641,
        "meta_inclination": 97.4613,
        "meta_ra_of_asc_node": 159.704,
        "meta_arg_of_pericenter": 336.9359,
        "meta_mean_anomaly": 23.1714,
        "meta_ephemeris_type": 0,
        "meta_classification_type": "U",
        "meta_norad_cat_id": 58703,
        "meta_element_set_no": 999,
        "meta_rev_at_epoch": 10604,
        "meta_bstar": 0.00060118,
        "meta_mean_motion_dot": 0.00014634,
        "meta_mean_motion_ddot": 0,
        "tle_line1": "1 58703U 24004D   25338.20580539  .00014634  00000+0  60118-3 0  9992",
        "tle_line2": "2 58703  97.4613 159.7040 0003641 336.9359  23.1714 15.24290863106042"
      },
      "geometry": {
        "type": "Point",
        "coordinates": [
          -137.0858894962083,
          -81.62981517623446
        ]
      }
    },
    {
      "type": "Feature",
      "properties": {
        "norad_id": 58990,
        "name": "INSAT-3DS",
        "group": "weather",
        "lat": -0.0038982451021610893,
        "lon": -41.443935215210736,
        "alt_km": 35783.03762141047,
        "timestamp": "2025-12-04T10:51:49.750000+00:00",
        "meta_object_name": "INSAT-3DS",
        "meta_object_id": "2024-033A",
        "meta_epoch": "2025-12-03T20:14:15.823680",
        "meta_mean_motion": 1.00268816,
        "meta_eccentricity": 0.00017747,
        "meta_inclination": 0.013,
        "meta_ra_of_asc_node": 325.7109,
        "meta_arg_of_pericenter": 294.1974,
        "meta_mean_anomaly": 198.6664,
        "meta_ephemeris_type": 0,
        "meta_classification_type": "U",
        "meta_norad_cat_id": 58990,
        "meta_element_set_no": 999,
        "meta_rev_at_epoch": 4511,
        "meta_bstar": 0,
        "meta_mean_motion_dot": 0,
        "meta_mean_motion_ddot": 0,
        "tle_line1": "1 58990U 24033A   25337.84323870  .00000000  00000+0  00000+0 0  9996",
        "tle_line2": "2 58990   0.0130 325.7109 0001774 294.1974 198.6664  1.00268816 45112"
      },
      "geometry": {
        "type": "Point",
        "coordinates": [
          -41.443935215210736,
          -0.0038982451021610893
        ]
      }
    },
    {
      "type": "Feature",
      "properties": {
        "norad_id": 59051,
        "name": "METEOR-M2 4",
        "group": "weather",
        "lat": -64.46903006798073,
        "lon": 96.85007047374543,
        "alt_km": 828.2950133477943,
        "timestamp": "2025-12-04T10:51:49.750011+00:00",
        "meta_object_name": "METEOR-M2 4",
        "meta_object_id": "2024-039A",
        "meta_epoch": "2025-12-03T23:34:54.758208",
        "meta_mean_motion": 14.22399136,
        "meta_eccentricity": 0.00075064,
        "meta_inclination": 98.6753,
        "meta_ra_of_asc_node": 295.0293,
        "meta_arg_of_pericenter": 22.846,
        "meta_mean_anomaly": 337.305,
        "meta_ephemeris_type": 0,
        "meta_classification_type": "U",
        "meta_norad_cat_id": 59051,
        "meta_element_set_no": 999,
        "meta_rev_at_epoch": 9151,
        "meta_bstar": 5.7122378e-05,
        "meta_mean_motion_dot": 8.4e-07,
        "meta_mean_motion_ddot": 0,
        "tle_line1": "1 59051U 24039A   25337.98257822  .00000084  00000+0  57122-4 0  9993",
        "tle_line2": "2 59051  98.6753 295.0293 0007506  22.8460 337.3050 14.22399136 91517"
      },
      "geometry": {
        "type": "Point",
        "coordinates": [
          96.85007047374543,
          -64.46903006798073
        ]
      }
    },
    {
      "type": "Feature",
      "properties": {
        "norad_id": 60133,
        "name": "GOES 19",
        "group": "weather",
        "lat": 0.001269743186707346,
        "lon": 161.2705599527158,
        "alt_km": 35790.51199346115,
        "timestamp": "2025-12-04T10:51:49.750022+00:00",
        "meta_object_name": "GOES 19",
        "meta_object_id": "2024-119A",
        "meta_epoch": "2025-12-03T13:23:52.774944",
        "meta_mean_motion": 1.00270855,
        "meta_eccentricity": 0.00013381,
        "meta_inclination": 0.0059,
        "meta_ra_of_asc_node": 37.8356,
        "meta_arg_of_pericenter": 260.173,
        "meta_mean_anomaly": 260.4283,
        "meta_ephemeris_type": 0,
        "meta_classification_type": "U",
        "meta_norad_cat_id": 60133,
        "meta_element_set_no": 999,
        "meta_rev_at_epoch": 500,
        "meta_bstar": 0,
        "meta_mean_motion_dot": -2.3e-06,
        "meta_mean_motion_ddot": 0,
        "tle_line1": "1 60133U 24119A   25337.55824971 -.00000230  00000+0  00000+0 0  9995",
        "tle_line2": "2 60133   0.0059  37.8356 0001338 260.1730 260.4283  1.00270855  5003"
      },
      "geometry": {
        "type": "Point",
        "coordinates": [
          161.2705599527158,
          0.001269743186707346
        ]
      }
    },
    {
      "type": "Feature",
      "properties": {
        "norad_id": 65815,
        "name": "FENGYUN 3H",
        "group": "weather",
        "lat": -19.11764143287672,
        "lon": 95.19622390614946,
        "alt_km": 831.0142158032904,
        "timestamp": "2025-12-04T10:51:49.750033+00:00",
        "meta_object_name": "FENGYUN 3H",
        "meta_object_id": "2025-219A",
        "meta_epoch": "2025-12-03T18:42:27.189504",
        "meta_mean_motion": 14.19900487,
        "meta_eccentricity": 6.277e-05,
        "meta_inclination": 98.657,
        "meta_ra_of_asc_node": 277.565,
        "meta_arg_of_pericenter": 71.8149,
        "meta_mean_anomaly": 288.3095,
        "meta_ephemeris_type": 0,
        "meta_classification_type": "U",
        "meta_norad_cat_id": 65815,
        "meta_element_set_no": 999,
        "meta_rev_at_epoch": 965,
        "meta_bstar": 9.1708595e-05,
        "meta_mean_motion_dot": 1.51e-06,
        "meta_mean_motion_ddot": 0,
        "tle_line1": "1 65815U 25219A   25337.77948136  .00000151  00000+0  91709-4 0  9995",
        "tle_line2": "2 65815  98.6570 277.5650 0000627  71.8149 288.3095 14.19900487  9657"
      },
      "geometry": {
        "type": "Point",
        "coordinates": [
          95.19622390614946,
          -19.11764143287672
        ]
      }
    }
  ]
}